NORAD_CAT_ID,OBJECT_NAME,OBJECT_TYPE,EPOCH,MEAN_MOTION,ECCENTRICITY,INCLINATION,RA_OF_ASC_NODE,ARG_OF_PERICENTER,MEAN_ANOMALY,BSTAR,MEAN_MOTION_DOT,MEAN_MOTION_DDOT,TLE_LINE0,TLE_LINE1,TLE_LINE2,SEMIMAJOR_AXIS,PERIOD,APOGEE,PERIGEE,DECAYED
56460.0,STARLINK-6047,PAYLOAD,2023-12-08 10:45:44,14.98400287,0.0002612,70.0023,57.5736,216.4956,143.6025,-0.0011708,-0.0001406,0.0,0 STARLINK-6047,1 56460U 23064N   23342.44843401 -.00014060  00000-0 -11708-2 0  9990,2 56460  70.0023  57.5736 0002612 216.4956 143.6025 14.98400287 32449,6949.976,96.102,573.656,570.025,0.0
56460.0,STARLINK-6047,PAYLOAD,2023-12-08 12:21:53,14.98336715,0.0002249,70.0029,57.4041,231.2498,128.846,-0.00019507,-2.42e-05,0.0,0 STARLINK-6047,1 56460U 23064N   23342.51520666 -.00002420  00000-0 -19507-3 0  9996,2 56460  70.0029  57.4041 0002249 231.2498 128.8460 14.98336715 32098,6950.172,96.107,573.6,570.474,0.0
56460.0,STARLINK-6047,PAYLOAD,2023-12-08 13:57:58,14.9841563,0.0002609,70.0034,57.2378,213.5656,146.5338,-0.00062617,-7.573e-05,0.0,0 STARLINK-6047,1 56460U 23064N   23342.58192684 -.00007573  00000-0 -62617-3 0  9992,2 56460  70.0034  57.2378 0002609 213.5656 146.5338 14.98415630 32460,6949.928,96.102,573.606,569.98,0.0
56460.0,STARLINK-6047,PAYLOAD,2023-12-09 10:47:46,14.98329336,0.0002536,70.0014,55.0468,240.9205,119.17,2.6447e-05,2.23e-06,0.0,0 STARLINK-6047,1 56460U 23064N   23343.44983947  .00000223  00000-0  26447-4 0  9993,2 56460  70.0014  55.0468 0002536 240.9205 119.1700 14.98329336 32597,6950.195,96.107,573.823,570.297,0.0
56460.0,STARLINK-6047,PAYLOAD,2023-12-09 12:23:54,14.9832621,0.0002487,70.001,54.8771,245.9322,114.1577,1.578e-05,9.5e-07,0.0,0 STARLINK-6047,1 56460U 23064N   23343.51660199  .00000095  00000-0  15780-4 0  9997,2 56460  70.0010  54.8771 0002487 245.9322 114.1577 14.98326210 32244,6950.205,96.107,573.798,570.341,0.0
56460.0,STARLINK-6047,PAYLOAD,2023-12-09 15:36:10,14.98328864,0.000212,70.0014,54.5411,264.337,95.7547,4.2054e-05,4.09e-06,0.0,0 STARLINK-6047,1 56460U 23064N   23343.65012088  .00000409  00000-0  42054-4 0  9993,2 56460  70.0014  54.5411 0002120 264.3370  95.7547 14.98328864 32268,6950.196,96.107,573.535,570.588,0.0
56460.0,STARLINK-6047,PAYLOAD,2023-12-10 14:02:03,14.98327206,0.000278,70.0004,52.1839,259.2787,100.8059,-2.6985e-05,-4.15e-06,0.0,0 STARLINK-6047,1 56460U 23064N   23344.58476208 -.00000415  00000-0 -26985-4 0  9998,2 56460  70.0004  52.1839 0002780 259.2787 100.8059 14.98327206 32403,6950.202,96.107,573.999,570.134,0.0
56460.0,STARLINK-6047,PAYLOAD,2023-12-11 14:04:04,14.9833088,0.0002808,70.0001,49.6591,258.7592,101.3251,-6.1057e-06,-1.66e-06,0.0,0 STARLINK-6047,1 56460U 23064N   23345.58615926 -.00000166  00000-0 -61057-5 0  9994,2 56460  70.0001  49.6591 0002808 258.7592 101.3251 14.98330880 32553,6950.19,96.107,574.007,570.104,0.0
56460.0,STARLINK-6047,PAYLOAD,2023-12-12 14:06:04,14.98330087,0.0002924,69.9996,47.1332,261.6168,98.4659,3.6332e-05,3.41e-06,0.0,0 STARLINK-6047,1 56460U 23064N   23346.58755757  .00000341  00000-0  36332-4 0  9992,2 56460  69.9996  47.1332 0002924 261.6168  98.4659 14.98330087 32704,6950.193,96.107,574.09,570.025,0.0
56460.0,STARLINK-6047,PAYLOAD,2023-12-13 14:08:05,14.98333077,0.0002909,69.9995,44.608,262.9309,97.1519,1.7293e-05,1.13e-06,0.0,0 STARLINK-6047,1 56460U 23064N   23347.58895488  .00000113  00000-0  17293-4 0  9991,2 56460  69.9995  44.6080 0002909 262.9309  97.1519 14.98333077 32858,6950.183,96.107,574.07,570.027,0.0
56460.0,STARLINK-6047,PAYLOAD,2023-12-14 10:57:50,14.98326829,0.0002789,69.9997,42.4192,263.6309,96.4532,-3.663e-05,-5.3e-06,0.0,0 STARLINK-6047,1 56460U 23064N   23348.45684020 -.00000530  00000-0 -36630-4 0  9997,2 56460  69.9997  42.4192 0002789 263.6309  96.4532 14.98326829 33343,6950.203,96.107,574.006,570.129,0.0
56460.0,STARLINK-6047,PAYLOAD,2023-12-14 14:10:07,14.98328417,0.0002791,69.9997,42.0827,263.5852,96.4989,-1.9088e-05,-3.21e-06,0.0,0 STARLINK-6047,1 56460U 23064N   23348.59035884 -.00000321  00000-0 -19088-4 0  9996,2 56460  69.9997  42.0827 0002791 263.5852  96.4989 14.98328417 33003,6950.198,96.107,574.003,570.123,0.0
56460.0,STARLINK-6047,PAYLOAD,2023-12-15 04:35:19,14.98333266,0.0002839,69.9995,40.5677,263.1672,96.9164,1.6532e-05,1.04e-06,0.0,0 STARLINK-6047,1 56460U 23064N   23349.19119404  .00000104  00000-0  16532-4 0  9992,2 56460  69.9995  40.5677 0002839 263.1672  96.9164 14.98333266 33453,6950.183,96.107,574.021,570.075,0.0
56460.0,STARLINK-6047,PAYLOAD,2023-12-15 12:35:59,14.98332493,0.000286,69.9995,39.7259,265.2996,94.7837,7.8175e-06,0.0,0.0,0 STARLINK-6047,1 56460U 23064N   23349.52499426  .00000000  00000-0  78175-5 0  9991,2 56460  69.9995  39.7259 0002860 265.2996  94.7837 14.98332493 33145,6950.185,96.107,574.038,570.062,0.0
56460.0,STARLINK-6047,PAYLOAD,2023-12-16 11:01:52,14.98328716,0.0002956,69.9992,37.3688,265.3073,94.7749,1.8899e-05,1.32e-06,0.0,0 STARLINK-6047,1 56460U 23064N   23350.45963581  .00000132  00000-0  18899-4 0  9995,2 56460  69.9992  37.3688 0002956 265.3073  94.7749 14.98328716 33645,6950.197,96.107,574.116,570.007,0.0
56460.0,STARLINK-6047,PAYLOAD,2023-12-17 11:03:53,14.98326643,0.0002827,69.9998,34.8448,262.6516,97.4321,-5.1265e-05,-7.05e-06,0.0,0 STARLINK-6047,1 56460U 23064N   23351.46104014 -.00000705  00000-0 -51265-4 0  9997,2 56460  69.9998  34.8448 0002827 262.6516  97.4321 14.98326643 33795,6950.203,96.107,574.033,570.103,0.0
56460.0,STARLINK-6047,PAYLOAD,2023-12-17 12:40:01,14.98326822,0.0002838,69.9997,34.6763,263.3495,96.7341,-4.8736e-05,-6.74e-06,0.0,0 STARLINK-6047,1 56460U 23064N   23351.52780012 -.00000674  00000-0 -48736-4 0  9996,2 56460  69.9997  34.6763 0002838 263.3495  96.7341 14.98326822 33443,6950.203,96.107,574.04,570.095,0.0
56460.0,STARLINK-6047,PAYLOAD,2023-12-18 03:05:13,14.9833331,0.0002923,69.9987,33.1586,282.6767,77.4065,8.8927e-05,9.68e-06,0.0,0 STARLINK-6047,1 56460U 23064N   23352.12863251  .00000968  00000-0  88927-4 0  9990,2 56460  69.9987  33.1586 0002923 282.6767  77.4065 14.98333310 33898,6950.183,96.107,574.079,570.016,0.0
56460.0,STARLINK-6047,PAYLOAD,2023-12-18 11:05:53,14.9833862,0.0003038,69.9991,32.3182,268.0526,92.0285,0.00010669,1.18e-05,0.0,0 STARLINK-6047,1 56460U 23064N   23352.46242615  .00001180  00000-0  10669-3 0  9996,2 56460  69.9991  32.3182 0003038 268.0526  92.0285 14.98338620 33947,6950.166,96.106,574.143,569.92,0.0
56460.0,STARLINK-6047,PAYLOAD,2023-12-18 12:42:01,14.98340074,0.0002998,69.9993,32.1504,266.7755,93.3061,0.00011892,1.327e-05,0.0,0 STARLINK-6047,1 56460U 23064N   23352.52918441  .00001327  00000-0  11892-3 0  9992,2 56460  69.9993  32.1504 0002998 266.7755  93.3061 14.98340074 33591,6950.162,96.106,574.11,569.943,0.0
56460.0,STARLINK-6047,PAYLOAD,2023-12-19 03:07:15,14.9832686,0.0002232,70.002,30.639,236.6374,123.4572,5.1883e-05,5.26e-06,0.0,0 STARLINK-6047,1 56460U 23064N   23353.13003499  .00000526  00000-0  51883-4 0  9993,2 56460  70.0020  30.6390 0002232 236.6374 123.4572 14.98326860 34045,6950.203,96.107,573.619,570.516,0.0
56460.0,STARLINK-6047,PAYLOAD,2023-12-19 12:44:03,14.98321251,0.000241,70.0008,29.628,245.9551,114.1356,-2.5584e-05,-3.98e-06,0.0,0 STARLINK-6047,1 56460U 23064N   23353.53060182 -.00000398  00000-0 -25584-4 0  9997,2 56460  70.0008  29.6280 0002410 245.9551 114.1356 14.98321251 33747,6950.22,96.108,573.76,570.41,0.0
56460.0,STARLINK-6047,PAYLOAD,2023-12-20 03:09:16,14.98341337,0.0002012,70.0004,28.1123,250.0872,110.007,-0.00022316,-2.755e-05,0.0,0 STARLINK-6047,1 56460U 23064N   23354.13143634 -.00002755  00000-0 -22316-3 0  9996,2 56460  70.0004  28.1123 0002012 250.0872 110.0070 14.98341337 34199,6950.158,96.106,573.421,570.624,0.0
56460.0,STARLINK-6047,PAYLOAD,2023-12-20 12:46:04,14.98332677,0.0002628,69.9996,27.101,262.4644,97.6216,-4.7736e-05,-6.63e-06,0.0,0 STARLINK-6047,1 56460U 23064N   23354.53199515 -.00000663  00000-0 -47736-4 0  9999,2 56460  69.9996  27.1010 0002628 262.4644  97.6216 14.98332677 33892,6950.185,96.107,573.876,570.223,0.0
56460.0,STARLINK-6047,PAYLOAD,2023-12-21 03:11:16,14.98329925,0.0002729,69.9993,25.5852,269.1875,90.8972,8.0237e-05,8.65e-06,0.0,0 STARLINK-6047,1 56460U 23064N   23355.13283272  .00000865  00000-0  80237-4 0  9995,2 56460  69.9993  25.5852 0002729 269.1875  90.8972 14.98329925 34344,6950.193,96.107,573.955,570.161,0.0
56460.0,STARLINK-6047,PAYLOAD,2023-12-21 11:11:56,14.98332175,0.0002389,69.9999,24.7438,263.9078,96.1809,0.00011261,1.251e-05,0.0,0 STARLINK-6047,1 56460U 23064N   23355.46663018  .00001251  00000-0  11261-3 0  9991,2 56460  69.9999  24.7438 0002389 263.9078  96.1809 14.98332175 34035,6950.186,96.107,573.712,570.391,0.0
56460.0,STARLINK-6047,PAYLOAD,2023-12-22 03:13:17,14.98324752,0.0002545,70.0001,23.061,241.6566,118.4336,0.00012254,1.369e-05,0.0,0 STARLINK-6047,1 56460U 23064N   23356.13423221  .00001369  00000-0  12254-3 0  9999,2 56460  70.0001  23.0610 0002545 241.6566 118.4336 14.98324752 34490,6950.209,96.107,573.843,570.305,0.0
56460.0,STARLINK-6047,PAYLOAD,2023-12-22 11:13:58,14.98323743,0.0002617,69.9997,22.2193,245.8592,114.2294,8.0374e-05,8.66e-06,0.0,0 STARLINK-6047,1 56460U 23064N   23356.46803494  .00000866  00000-0  80374-4 0  9999,2 56460  69.9997  22.2193 0002617 245.8592 114.2294 14.98323743 34185,6950.212,96.107,573.896,570.258,0.0
56460.0,STARLINK-6047,PAYLOAD,2023-12-23 03:15:18,14.98330464,0.0002584,69.9998,20.5361,255.7695,104.3177,-7.0474e-05,-9.34e-06,0.0,0 STARLINK-6047,1 56460U 23064N   23357.13563464 -.00000934  00000-0 -70474-4 0  9992,2 56460  69.9998  20.5361 0002584 255.7695 104.3177 14.98330464 34640,6950.191,96.107,573.852,570.261,0.0
56460.0,STARLINK-6047,PAYLOAD,2023-12-23 11:15:59,14.98330675,0.0002567,69.9999,19.6945,254.5098,105.5778,-6.3416e-05,-8.5e-06,0.0,0 STARLINK-6047,1 56460U 23064N   23357.46943411 -.00000850  00000-0 -63416-4 0  9997,2 56460  69.9999  19.6945 0002567 254.5098 105.5778 14.98330675 34333,6950.191,96.107,573.84,570.272,0.0
